[{"OBJECT_NAME":"SITRO-AIS 44","OBJECT_ID":"2024-199P","EPOCH":"2026-03-09T22:00:49.428864","MEAN_MOTION":15.55686039,"ECCENTRICITY":0.000449,"INCLINATION":97.3075,"RA_OF_ASC_NODE":305.0705,"ARG_OF_PERICENTER":282.4122,"MEAN_ANOMALY":77.663,"EPHEMERIS_TYPE":0,"CLASSIFICATION_TYPE":"U","NORAD_CAT_ID":61748,"ELEMENT_SET_NO":999,"REV_AT_EPOCH":12229,"BSTAR":0.00083685162,"MEAN_MOTION_DOT":0.00057776,"MEAN_MOTION_DDOT":0},{"OBJECT_NAME":"STARLINK-36411","OBJECT_ID":"2026-018V","EPOCH":"2026-03-09T22:00:01.999584","MEAN_MOTION":15.67971657,"ECCENTRICITY":0.00018908,"INCLINATION":97.2839,"RA_OF_ASC_NODE":134.8178,"ARG_OF_PERICENTER":74.0997,"MEAN_ANOMALY":109.8922,"EPHEMERIS_TYPE":0,"CLASSIFICATION_TYPE":"U","NORAD_CAT_ID":67608,"ELEMENT_SET_NO":999,"REV_AT_EPOCH":604,"BSTAR":-0.020003062,"MEAN_MOTION_DOT":-0.01951575,"MEAN_MOTION_DDOT":0}]
